{
    "links": {
        "self": "http://www.neowsapp.com/rest/v1/neo/3626030?api_key=iIulBulltgU6a56xZRHN4H3l9WmuAYTsLGpBGhQ2"
    },
    "id": "3626030",
    "neo_reference_id": "3626030",
    "name": "(2013 CX32)",
    "designation": "2013 CX32",
    "nasa_jpl_url": "http://ssd.jpl.nasa.gov/sbdb.cgi?sstr=3626030",
    "absolute_magnitude_h": 24.6,
    "estimated_diameter": {
        "kilometers": {
            "estimated_diameter_min": 0.0319561887,
            "estimated_diameter_max": 0.0714562102
        },
        "meters": {
            "estimated_diameter_min": 31.9561886721,
            "estimated_diameter_max": 71.4562101727
        },
        "miles": {
            "estimated_diameter_min": 0.0198566489,
            "estimated_diameter_max": 0.0444008168
        },
        "feet": {
            "estimated_diameter_min": 104.8431420431,
            "estimated_diameter_max": 234.436392583
        }
    },
    "is_potentially_hazardous_asteroid": false,
    "close_approach_data": [
        {
            "close_approach_date": "2013-02-04",
            "close_approach_date_full": "2013-Feb-04 08:31",
            "epoch_date_close_approach": 1359966660000,
            "relative_velocity": {
                "kilometers_per_second": "8.352139956",
                "kilometers_per_hour": "30067.7038416429",
                "miles_per_hour": "18682.901867603"
            },
            "miss_distance": {
                "astronomical": "0.047889434",
                "lunar": "18.628989826",
                "kilometers": "7164157.32190558",
                "miles": "4451600.936353804"
            },
            "orbiting_body": "Earth"
        },
        {
            "close_approach_date": "2075-03-16",
            "close_approach_date_full": "2075-Mar-16 14:46",
            "epoch_date_close_approach": 3319973160000,
            "relative_velocity": {
                "kilometers_per_second": "21.1784720226",
                "kilometers_per_hour": "76242.49928118",
                "miles_per_hour": "47374.1240672421"
            },
            "miss_distance": {
                "astronomical": "0.499910974",
                "lunar": "194.465368886",
                "kilometers": "74785616.90002538",
                "miles": "46469627.516415044"
            },
            "orbiting_body": "Earth"
        }
    ],
    "orbital_data": {
        "orbit_id": "7",
        "orbit_determination_date": "2018-02-10 07:05:30",
        "first_observation_date": "2013-02-06",
        "last_observation_date": "2013-02-15",
        "data_arc_in_days": 9,
        "observations_used": 44,
        "orbit_uncertainty": "8",
        "minimum_orbit_intersection": ".0421863",
        "jupiter_tisserand_invariant": "3.671",
        "epoch_osculation": "2456333.5",
        "eccentricity": ".49074857600327",
        "semi_major_axis": "1.996685320589501",
        "inclination": "9.319424015677045",
        "ascending_node_longitude": "317.0849887837554",
        "orbital_period": "1030.535280422676",
        "perihelion_distance": "1.016814842783571",
        "perihelion_argument": "162.2178251106887",
        "aphelion_distance": "2.976555798395431",
        "perihelion_time": "2456314.985963012694",
        "mean_anomaly": "6.467564422148143",
        "mean_motion": ".3493330183245597",
        "equinox": "J2000",
        "orbit_class": {
            "orbit_class_type": "APO",
            "orbit_class_description": "Near-Earth asteroid orbits which cross the Earth’s orbit similar to that of 1862 Apollo",
            "orbit_class_range": "a (semi-major axis) > 1.0 AU; q (perihelion) < 1.017 AU"
        }
    },
    "is_sentry_object": false
}